INTELSAT 37E (IS-37E)   
1 42950U 17059A   23277.16765050 -.00000149  00000+0  00000+0 0  9996
2 42950   0.0010 148.4472 0002879  55.6796 210.8249  1.00271425 22144
AZERSPACE 2 (IS-38)     
1 43632U 18074A   23276.84528451  .00000127  00000+0  00000+0 0  9993
2 43632   0.0177 170.5713 0001576  38.2849 152.8577  1.00271934 18542
HORIZONS-3E             
1 43633U 18074B   23277.44954948 -.00000041  00000+0  00000+0 0  9991
2 43633   0.0145 179.8491 0002678 108.6938  55.1739  1.00264987 18431
AT&T T-16               
1 44333U 19034A   23277.21295728 -.00000124  00000+0  00000+0 0  9997
2 44333   0.0185 220.2646 0000078  11.4359 116.7593  1.00269902 15730
INTELSAT 39 (IS-39)     
1 44476U 19049B   23277.16330449  .00000025  00000+0  00000+0 0  9994
2 44476   0.0178 196.6839 0000517 160.7407 135.8975  1.00270664 15238
GALAXY 30 (G-30)        
1 46114U 20056C   23277.23034017  .00000028  00000+0  00000+0 0  9998
2 46114   0.0160 151.3659 0002494  53.0179 126.2149  1.00271719 11509
GALAXY 33 (G-33)        
1 54026U 22128A   23277.50340281  .00000070  00000+0  00000+0 0  9991
2 54026   0.0124 196.3559 0001950   3.1455 221.6414  1.00270394  3859
GALAXY 34 (G-34)        
1 54027U 22128B   23277.47938181  .00000050  00000+0  00000+0 0  9998
2 54027   0.0142 239.2944 0001474 313.9009 223.3183  1.00272636  3889
GALAXY 31 (G-31)        
1 54243U 22153A   23276.69698411  .00000004  00000+0  00000+0 0  9997
2 54243   0.0131 240.9298 0002635 359.7393 261.4007  1.00273196  3242
GALAXY 32 (G-32)        
1 54244U 22153B   23276.84614084 -.00000183  00000+0  00000+0 0  9998
2 54244   0.0145 278.8581 0000368 357.8345 309.2103  1.00271897  3244
GALAXY 35 (G-35)        
1 54741U 22170A   23276.84587979 -.00000171  00000+0  00000+0 0  9998
2 54741   0.0185 218.4078 0001445 348.0403  17.2624  1.00272067  2990
GALAXY 36 (G-36)        
1 54742U 22170B   23276.48840972 -.00000194  00000+0  00000+0 0  9999
2 54742   0.0173 211.2595 0002177 284.3759 323.1347  1.00272341  2864
GALAXY 37 (G-37)        
1 57493U 23112A   23276.69559174  .00000039  00000+0  00000+0 0  9993
2 57493   0.0532  72.1538 0002969 109.8512 313.5483  1.00271793   645
